{
    "CCSDS_OMM_VERS": "3.0",
    "COMMENT": "GENERATED VIA SPACE-TRACK.ORG API",
    "CREATION_DATE": "2025-11-23T22:56:29",
    "ORIGINATOR": "18 SPCS",
    "OBJECT_NAME": "QZS-1 (MICHIBIKI)",
    "OBJECT_ID": "2010-045A",
    "CENTER_NAME": "EARTH",
    "REF_FRAME": "TEME",
    "TIME_SYSTEM": "UTC",
    "MEAN_ELEMENT_THEORY": "SGP4",
    "EPOCH": "2025-11-23T09:34:38.497152",
    "MEAN_MOTION": "0.87715546",
    "ECCENTRICITY": "0.00048870",
    "INCLINATION": "43.9493",
    "RA_OF_ASC_NODE": "118.6501",
    "ARG_OF_PERICENTER": "78.5776",
    "MEAN_ANOMALY": "283.7184",
    "EPHEMERIS_TYPE": "0",
    "CLASSIFICATION_TYPE": "U",
    "NORAD_CAT_ID": "37158",
    "ELEMENT_SET_NO": "999",
    "REV_AT_EPOCH": "5459",
    "BSTAR": "0.00000000000000",
    "MEAN_MOTION_DOT": "0.00000038",
    "MEAN_MOTION_DDOT": "0.0000000000000",
    "SEMIMAJOR_AXIS": "46098.217",
    "PERIOD": "1641.670",
    "APOAPSIS": "39742.610",
    "PERIAPSIS": "39697.554",
    "OBJECT_TYPE": "PAYLOAD",
    "RCS_SIZE": "LARGE",
    "COUNTRY_CODE": "JPN",
    "LAUNCH_DATE": "2010-09-11",
    "SITE": "TNSTA",
    "DECAY_DATE": null,
    "FILE": "4896275",
    "GP_ID": "303349881",
    "TLE_LINE0": "0 QZS-1 (MICHIBIKI)",
    "TLE_LINE1": "1 37158U 10045A   25327.39905668  .00000038  00000-0  00000+0 0  9999",
    "TLE_LINE2": "2 37158  43.9493 118.6501 0004887  78.5776 283.7184  0.87715546 54596"
}